start=new Date('2022-02-09T00:00:00.000Z').valueOf();
sats=[{"MEAN_ELEMENT_THEORY":"SGP4","OBJECT_NAME":"STARLINK-2713","DECAY_DATE":null,"TIME_SYSTEM":"UTC","RA_OF_ASC_NODE":"326.3035","REF_FRAME":"TEME","INCLINATION":"53.0527","MEAN_ANOMALY":"299.5967","ARG_OF_PERICENTER":"60.5178","FILE":"3295400","LAUNCH_DATE":"2021-05-15","TLE_LINE1":"1 48602U 21041BB  22039.50826572  .00004836  00000-0  34334-3 0  9990","NORAD_CAT_ID":"48602","EPHEMERIS_TYPE":"0","SITE":"AFETR","EPOCH":"2022-02-08T12:11:54.158208","CENTER_NAME":"EARTH","ELEMENT_SET_NO":"999","OBJECT_TYPE":"PAYLOAD","ECCENTRICITY":"0.00015700","TLE_LINE2":"2 48602  53.0527 326.3035 0001570  60.5178 299.5967 15.06396905 42070","SEMIMAJOR_AXIS":"6925.358","CLASSIFICATION_TYPE":"U","MEAN_MOTION_DOT":"0.00004836","APOAPSIS":"548.310","RCS_SIZE":"LARGE","REV_AT_EPOCH":"4207","MEAN_MOTION_DDOT":"0.0000000000000","BSTAR":"0.00034334000000","PERIOD":"95.592","GP_ID":"195581438","COUNTRY_CODE":"US","MEAN_MOTION":"15.06396905","PERIAPSIS":"546.136","OBJECT_ID":"2021-041BB"},{"TIME_SYSTEM":"UTC","RA_OF_ASC_NODE":"321.3949","REF_FRAME":"TEME","MEAN_ELEMENT_THEORY":"SGP4","OBJECT_NAME":"STARLINK-2714","DECAY_DATE":null,"TLE_LINE1":"1 48603U 21041BC  22039.48749218  .00002293  00000-0  17284-3 0  9999","LAUNCH_DATE":"2021-05-15","NORAD_CAT_ID":"48603","EPHEMERIS_TYPE":"0","EPOCH":"2022-02-08T11:41:59.324352","SITE":"AFETR","INCLINATION":"53.0540","MEAN_ANOMALY":"291.0321","ARG_OF_PERICENTER":"69.0846","FILE":"3295096","ECCENTRICITY":"0.00016580","OBJECT_TYPE":"PAYLOAD","CENTER_NAME":"EARTH","ELEMENT_SET_NO":"999","SEMIMAJOR_AXIS":"6925.364","MEAN_MOTION_DOT":"0.00002293","CLASSIFICATION_TYPE":"U","APOAPSIS":"548.377","RCS_SIZE":"LARGE","TLE_LINE2":"2 48603  53.0540 321.3949 0001658  69.0846 291.0321 15.06394872 42148","PERIOD":"95.592","REV_AT_EPOCH":"4214","MEAN_MOTION_DDOT":"0.0000000000000","BSTAR":"0.00017284000000","COUNTRY_CODE":"US","MEAN_MOTION":"15.06394872","GP_ID":"195549421","PERIAPSIS":"546.081","OBJECT_ID":"2021-041BC"},{"SEMIMAJOR_AXIS":"6925.369","MEAN_MOTION_DOT":"0.00002615","CLASSIFICATION_TYPE":"U","APOAPSIS":"548.354","RCS_SIZE":"LARGE","TLE_LINE2":"2 48604  53.0573 351.0935 0001617  60.1191 299.9958 15.06393192 41731","ECCENTRICITY":"0.00016170","OBJECT_TYPE":"PAYLOAD","CENTER_NAME":"EARTH","ELEMENT_SET_NO":"999","TLE_LINE1":"1 48604U 21041BD  22039.55571123  .00002615  00000-0  19440-3 0  9990","LAUNCH_DATE":"2021-05-15","EPHEMERIS_TYPE":"0","NORAD_CAT_ID":"48604","EPOCH":"2022-02-08T13:20:13.450272","SITE":"AFETR","INCLINATION":"53.0573","MEAN_ANOMALY":"299.9958","ARG_OF_PERICENTER":"60.1191","FILE":"3295096","TIME_SYSTEM":"UTC","RA_OF_ASC_NODE":"351.0935","REF_FRAME":"TEME","MEAN_ELEMENT_THEORY":"SGP4","OBJECT_NAME":"STARLINK-2757","DECAY_DATE":null,"PERIAPSIS":"546.115","OBJECT_ID":"2021-041BD","COUNTRY_CODE":"US","MEAN_MOTION":"15.06393192","GP_ID":"195548936","PERIOD":"95.593","REV_AT_EPOCH":"4173","MEAN_MOTION_DDOT":"0.0000000000000","BSTAR":"0.00019440000000"},{"PERIAPSIS":"546.144","OBJECT_ID":"2021-044A","PERIOD":"95.592","REV_AT_EPOCH":"4011","MEAN_MOTION_DDOT":"0.0000000000000","BSTAR":"0.00039856000000","MEAN_MOTION":"15.06399819","COUNTRY_CODE":"US","GP_ID":"195577580","ECCENTRICITY":"0.00015450","OBJECT_TYPE":"PAYLOAD","ELEMENT_SET_NO":"999","CENTER_NAME":"EARTH","CLASSIFICATION_TYPE":"U","MEAN_MOTION_DOT":"0.00005660","SEMIMAJOR_AXIS":"6925.349","APOAPSIS":"548.284","RCS_SIZE":"LARGE","TLE_LINE2":"2 48638  53.0565 325.1163 0001545  79.4463 280.6700 15.06399819 40114","TIME_SYSTEM":"UTC","REF_FRAME":"TEME","RA_OF_ASC_NODE":"325.1163","MEAN_ELEMENT_THEORY":"SGP4","OBJECT_NAME":"STARLINK-2758","DECAY_DATE":null,"EPHEMERIS_TYPE":"0","NORAD_CAT_ID":"48638","LAUNCH_DATE":"2021-05-26","TLE_LINE1":"1 48638U 21044A   22039.77270471  .00005660  00000-0  39856-3 0  9992","SITE":"AFETR","EPOCH":"2022-02-08T18:32:41.686944","MEAN_ANOMALY":"280.6700","INCLINATION":"53.0565","FILE":"3295223","ARG_OF_PERICENTER":"79.4463"},{"GP_ID":"195548925","COUNTRY_CODE":"US","MEAN_MOTION":"15.06394024","BSTAR":"0.00077683000000","MEAN_MOTION_DDOT":"0.0000000000000","REV_AT_EPOCH":"3917","PERIOD":"95.593","OBJECT_ID":"2021-044B","PERIAPSIS":"546.156","ARG_OF_PERICENTER":"67.7018","FILE":"3295096","INCLINATION":"53.0567","MEAN_ANOMALY":"292.4136","EPOCH":"2022-02-08T11:49:19.197120","SITE":"AFETR","TLE_LINE1":"1 48639U 21044B   22039.49258330  .00011306  00000-0  77683-3 0  9996","LAUNCH_DATE":"2021-05-26","NORAD_CAT_ID":"48639","EPHEMERIS_TYPE":"0","DECAY_DATE":null,"MEAN_ELEMENT_THEORY":"SGP4","OBJECT_NAME":"STARLINK-2739","RA_OF_ASC_NODE":"326.3678","REF_FRAME":"TEME","TIME_SYSTEM":"UTC","TLE_LINE2":"2 48639  53.0567 326.3678 0001554  67.7018 292.4136 15.06394024 39178","RCS_SIZE":"LARGE","APOAPSIS":"548.308","SEMIMAJOR_AXIS":"6925.367","CLASSIFICATION_TYPE":"U","MEAN_MOTION_DOT":"0.00011306","CENTER_NAME":"EARTH","ELEMENT_SET_NO":"999","ECCENTRICITY":"0.00015540","OBJECT_TYPE":"PAYLOAD"},{"RCS_SIZE":"LARGE","APOAPSIS":"548.261","CLASSIFICATION_TYPE":"U","MEAN_MOTION_DOT":"0.00001771","SEMIMAJOR_AXIS":"6925.372","TLE_LINE2":"2 48640  53.0556 326.2300 0001478  68.6210 291.4937 15.06392205 39175","OBJECT_TYPE":"PAYLOAD","ECCENTRICITY":"0.00014780","ELEMENT_SET_NO":"999","CENTER_NAME":"EARTH","SITE":"AFETR","EPOCH":"2022-02-08T12:37:04.618560","EPHEMERIS_TYPE":"0","NORAD_CAT_ID":"48640","LAUNCH_DATE":"2021-05-26","TLE_LINE1":"1 48640U 21044C   22039.52574790  .00001771  00000-0  13782-3 0  9998","FILE":"3295096","ARG_OF_PERICENTER":"68.6210","MEAN_ANOMALY":"291.4937","INCLINATION":"53.0556","REF_FRAME":"TEME","RA_OF_ASC_NODE":"326.2300","TIME_SYSTEM":"UTC","DECAY_DATE":null,"MEAN_ELEMENT_THEORY":"SGP4","OBJECT_NAME":"STARLINK-2736","OBJECT_ID":"2021-044C","PERIAPSIS":"546.214","MEAN_MOTION":"15.06392205","COUNTRY_CODE":"US","GP_ID":"195549441","PERIOD":"95.593","BSTAR":"0.00013782000000","REV_AT_EPOCH":"3917","MEAN_MOTION_DDOT":"0.0000000000000"},{"ELEMENT_SET_NO":"999","CENTER_NAME":"EARTH","OBJECT_TYPE":"PAYLOAD","ECCENTRICITY":"0.00014990","TLE_LINE2":"2 48641  53.0559 331.3501 0001499  60.1487 299.9650 15.06402226 39108","APOAPSIS":"548.245","RCS_SIZE":"LARGE","CLASSIFICATION_TYPE":"U","MEAN_MOTION_DOT":"0.00011212","SEMIMAJOR_AXIS":"6925.342","DECAY_DATE":null,"OBJECT_NAME":"STARLINK-2754","MEAN_ELEMENT_THEORY":"SGP4","REF_FRAME":"TEME","RA_OF_ASC_NODE":"331.3501","TIME_SYSTEM":"UTC","FILE":"3295096","ARG_OF_PERICENTER":"60.1487","MEAN_ANOMALY":"299.9650","INCLINATION":"53.0559","EPOCH":"2022-02-08T11:57:58.614912","SITE":"AFETR","EPHEMERIS_TYPE":"0","NORAD_CAT_ID":"48641","LAUNCH_DATE":"2021-05-26","TLE_LINE1":"1 48641U 21044D   22039.49859508  .00011212  00000-0  77037-3 0  9992","OBJECT_ID":"2021-044D","PERIAPSIS":"546.169","BSTAR":"0.00077037000000","REV_AT_EPOCH":"3910","MEAN_MOTION_DDOT":"0.0000000000000","PERIOD":"95.592","GP_ID":"195549187","MEAN_MOTION":"15.06402226","COUNTRY_CODE":"US"},{"COUNTRY_CODE":"US","MEAN_MOTION":"15.06375545","GP_ID":"195549940","PERIOD":"95.594","BSTAR":"0.00011165000000","MEAN_MOTION_DDOT":"0.0000000000000","REV_AT_EPOCH":"3910","OBJECT_ID":"2021-044E","PERIAPSIS":"546.255","EPOCH":"2022-02-08T12:17:51.892224","SITE":"AFETR","TLE_LINE1":"1 48642U 21044E   22039.51240616  .00001381  00000-0  11165-3 0  9996","LAUNCH_DATE":"2021-05-26","EPHEMERIS_TYPE":"0","NORAD_CAT_ID":"48642","ARG_OF_PERICENTER":"66.3143","FILE":"3295096","INCLINATION":"53.0580","MEAN_ANOMALY":"293.8003","RA_OF_ASC_NODE":"331.2802","REF_FRAME":"TEME","TIME_SYSTEM":"UTC","DECAY_DATE":null,"MEAN_ELEMENT_THEORY":"SGP4","OBJECT_NAME":"STARLINK-2646","RCS_SIZE":"LARGE","APOAPSIS":"548.322","SEMIMAJOR_AXIS":"6925.424","CLASSIFICATION_TYPE":"U","MEAN_MOTION_DOT":"0.00001381","TLE_LINE2":"2 48642  53.0580 331.2802 0001493  66.3143 293.8003 15.06375545 39105","OBJECT_TYPE":"PAYLOAD","ECCENTRICITY":"0.00014930","CENTER_NAME":"EARTH","ELEMENT_SET_NO":"999"},{"TLE_LINE2":"2 48643  53.0568 331.3575 0001532  79.2612 280.8549 15.06374403 39101","CLASSIFICATION_TYPE":"U","MEAN_MOTION_DOT":"0.00000486","SEMIMAJOR_AXIS":"6925.427","APOAPSIS":"548.353","RCS_SIZE":"LARGE","ELEMENT_SET_NO":"999","CENTER_NAME":"EARTH","OBJECT_TYPE":"PAYLOAD","ECCENTRICITY":"0.00015320","MEAN_ANOMALY":"280.8549","INCLINATION":"53.0568","FILE":"3295096","ARG_OF_PERICENTER":"79.2612","EPHEMERIS_TYPE":"0","NORAD_CAT_ID":"48643","LAUNCH_DATE":"2021-05-26","TLE_LINE1":"1 48643U 21044F   22039.49491843  .00000486  00000-0  51551-4 0  9993","EPOCH":"2022-02-08T11:52:40.952352","SITE":"AFETR","OBJECT_NAME":"STARLINK-2704","MEAN_ELEMENT_THEORY":"SGP4","DECAY_DATE":null,"TIME_SYSTEM":"UTC","REF_FRAME":"TEME","RA_OF_ASC_NODE":"331.3575","PERIAPSIS":"546.231","OBJECT_ID":"2021-044F","GP_ID":"195549426","MEAN_MOTION":"15.06374403","COUNTRY_CODE":"US","MEAN_MOTION_DDOT":"0.0000000000000","REV_AT_EPOCH":"3910","BSTAR":"0.00005155100000","PERIOD":"95.594"},{"GP_ID":"195548941","MEAN_MOTION":"15.06385189","COUNTRY_CODE":"US","MEAN_MOTION_DDOT":"0.0000000000000","REV_AT_EPOCH":"3905","BSTAR":"0.00009862800000","PERIOD":"95.593","PERIAPSIS":"546.081","OBJECT_ID":"2021-044G","MEAN_ANOMALY":"298.7164","INCLINATION":"53.0566","FILE":"3295096","ARG_OF_PERICENTER":"61.3996","EPHEMERIS_TYPE":"0","NORAD_CAT_ID":"48644","TLE_LINE1":"1 48644U 21044G   22039.15948185  .00001187  00000-0  98628-4 0  9998","LAUNCH_DATE":"2021-05-26","EPOCH":"2022-02-08T03:49:39.231840","SITE":"AFETR","MEAN_ELEMENT_THEORY":"SGP4","OBJECT_NAME":"STARLINK-2695","DECAY_DATE":null,"TIME_SYSTEM":"UTC","REF_FRAME":"TEME","RA_OF_ASC_NODE":"332.8761","TLE_LINE2":"2 48644  53.0566 332.8761 0001701  61.3996 298.7164 15.06385189 39056","CLASSIFICATION_TYPE":"U","MEAN_MOTION_DOT":"0.00001187","SEMIMAJOR_AXIS":"6925.394","APOAPSIS":"548.437","RCS_SIZE":"LARGE","ELEMENT_SET_NO":"999","CENTER_NAME":"EARTH","ECCENTRICITY":"0.00017010","OBJECT_TYPE":"PAYLOAD"}];
